GSAT0101 (GALILEO-PFM)  
1 37846U 11060A   25284.13636910 -.00000089  00000+0  00000+0 0  9992
2 37846  57.0670 348.5203 0001152 289.6926  70.3561  1.70475540 86875
GSAT0102 (GALILEO-FM2)  
1 37847U 11060B   25284.65173319 -.00000091  00000+0  00000+0 0  9992
2 37847  57.0679 348.5066 0002879 298.5720  63.1921  1.70475803 86894
GSAT0103 (GALILEO-FM3)  
1 38857U 12055A   25284.76296254  .00000041  00000+0  00000+0 0  9999
2 38857  55.6534 108.3679 0001591 280.5007  79.5245  1.70473417 80771
GSAT0201 (GALILEO 5)    
1 40128U 14050A   25284.94410595 -.00000019  00000+0  00000+0 0  9992
2 40128  49.1469 283.5791 1642296 169.9315 193.8209  1.85519429 73713
GSAT0202 (GALILEO 6)    
1 40129U 14050B   25282.50565468 -.00000020  00000+0  00000+0 0  9995
2 40129  49.1656 282.7612 1642567 170.5955 192.9105  1.85520152 75839
GSAT0203 (GALILEO 7)    
1 40544U 15017A   25285.08781118 -.00000093  00000+0  00000+0 0  9998
2 40544  56.8609 348.3628 0005621 253.9493 106.0473  1.70476117 64977
GSAT0204 (GALILEO 8)    
1 40545U 15017B   25283.58337258 -.00000087  00000+0  00000+0 0  9997
2 40545  56.8677 348.4214 0006170 246.2784 113.7194  1.70475448 27995
GSAT0205 (GALILEO 9)    
1 40889U 15045A   25284.52458824  .00000002  00000+0  00000+0 0  9993
2 40889  55.0282 228.4751 0004385  23.9196 336.0862  1.70472838 62772
GSAT0206 (GALILEO 10)   
1 40890U 15045B   25284.15865897  .00000004  00000+0  00000+0 0  9998
2 40890  55.0275 228.4803 0002460   4.1545 355.8319  1.70472813 62796
GSAT0209 (GALILEO 12)   
1 41174U 15079A   25283.15426746  .00000046  00000+0  00000+0 0  9992
2 41174  55.6716 108.1258 0002805  11.7947 348.2611  1.70474044 60516
GSAT0208 (GALILEO 11)   
1 41175U 15079B   25284.54753967  .00000041  00000+0  00000+0 0  9990
2 41175  55.6718 108.0848 0002540  23.7011 336.3537  1.70473880 60954
GSAT0211 (GALILEO 14)   
1 41549U 16030A   25283.49779112  .00000006  00000+0  00000+0 0  9997
2 41549  55.1774 228.5617 0003425 338.4932  21.4740  1.70472887 58411
GSAT0210 (GALILEO 13)   
1 41550U 16030B   25283.16880077  .00000007  00000+0  00000+0 0  9997
2 41550  55.1770 228.5690 0003154 248.0544 111.8921  1.70473360 58405
GSAT0207 (GALILEO 15)   
1 41859U 16069A   25285.20735497  .00000039  00000+0  00000+0 0  9998
2 41859  55.3429 107.9537 0002236 348.5510  11.4858  1.70473979 55170
GSAT0212 (GALILEO 16)   
1 41860U 16069B   25284.47451211  .00000040  00000+0  00000+0 0  9999
2 41860  55.3403 107.9694 0003011  40.6045 319.4611  1.70474144 55413
GSAT0213 (GALILEO 17)   
1 41861U 16069C   25284.25560188  .00000040  00000+0  00000+0 0  9990
2 41861  55.3434 107.9829 0001564 304.6842  55.3448  1.70474476 55273
GSAT0214 (GALILEO 18)   
1 41862U 16069D   25280.88206682  .00000062  00000+0  00000+0 0  9996
2 41862  55.3407 108.0695 0000965 339.3091  20.7543  1.70474191 55346
GSAT0215 (GALILEO 19)   
1 43055U 17079A   25284.30458619  .00000003  00000+0  00000+0 0  9999
2 43055  55.1547 228.3548 0002534 283.1770  76.7797  1.70473650 48749
GSAT0216 (GALILEO 20)   
1 43056U 17079B   25282.83614807  .00000007  00000+0  00000+0 0  9993
2 43056  55.1570 228.3951 0003983 288.1673  71.7678  1.70473794 48731
GSAT0217 (GALILEO 21)   
1 43057U 17079C   25281.29706104  .00000006  00000+0  00000+0 0  9994
2 43057  55.1540 228.4354 0003483 302.6499  57.2862  1.70473742 48692
GSAT0218 (GALILEO 22)   
1 43058U 17079D   25285.03666338 -.00000001  00000+0  00000+0 0  9991
2 43058  55.1536 228.3305 0004352 284.7405  75.1978  1.70473734 48784
GSAT0221 (GALILEO 25)   
1 43564U 18060A   25280.24682130 -.00000075  00000+0  00000+0 0  9991
2 43564  57.2430 348.6159 0005487 268.0525  91.9516  1.70475940 44852
GSAT0222 (GALILEO 26)   
1 43565U 18060B   25283.98555665 -.00000088  00000+0  00000+0 0  9992
2 43565  57.2459 348.5175 0005665 245.4356 114.5671  1.70475704 44964
GSAT0219 (GALILEO 23)   
1 43566U 18060C   25285.37993970 -.00000094  00000+0  00000+0 0  9990
2 43566  57.2447 348.4815 0004500 271.0070  88.9996  1.70475932 44964
GSAT0220 (GALILEO 24)   
1 43567U 18060D   25285.01425396 -.00000092  00000+0  00000+0 0  9992
2 43567  57.2444 348.4911 0004964 269.2904  90.7117  1.70475677 44948
GSAT0223 (GALILEO 27)   
1 49809U 21116A   25285.45049286 -.00000094  00000+0  00000+0 0  9993
2 49809  57.2337 348.3704 0004551 227.8024 130.6428  1.70475892 23954
GSAT0224 (GALILEO 28)   
1 49810U 21116B   25278.18484427 -.00000072  00000+0  00000+0 0  9993
2 49810  57.2367 348.5668 0003507 220.6967 111.2402  1.70476119 23856
GSAT0225 (GALILEO 29)   
1 59598U 24079A   25285.57243344  .00000039  00000+0  00000+0 0  9992
2 59598  54.9624 108.0049 0001965 145.4248  32.7194  1.70474174  9098
GSAT0227 (GALILEO 30)   
1 59600U 24079C   25284.87908336  .00000038  00000+0  00000+0 0  9996
2 59600  54.9565 108.0239 0004003 105.2659 254.8209  1.70474327  9132
GSAT0232 (GALILEO 32)   
1 61182U 24167A   25271.23049442  .00000023  00000+0  00000+0 0  9996
2 61182  55.2704 228.5007 0004270 234.9847 223.5149  1.70473593  6413
GSAT0226 (GALILEO 31)   
1 61183U 24167B   25281.62387541  .00000007  00000+0  00000+0 0  9998
2 61183  55.2654 228.2215 0001747 229.2179 240.5500  1.70473190  6566
